{
  "type": "FeatureCollection",
  "features": [
    {
      "type": "Feature",
      "properties": {
        "norad_id": 34998,
        "name": "COSMOS 2251 DEB",
        "group": "cosmos-2251-debris",
        "lat": 19.25080920673329,
        "lon": -10.877497781898084,
        "alt_km": 742.0074716091312,
        "timestamp": "2025-12-04T19:33:59.994901+00:00",
        "meta_object_name": "COSMOS 2251 DEB",
        "meta_object_id": "1993-036AFW",
        "meta_epoch": "2025-12-03T00:27:28.459296",
        "meta_mean_motion": 14.49214927,
        "meta_eccentricity": 0.00207984,
        "meta_inclination": 74.0093,
        "meta_ra_of_asc_node": 178.2428,
        "meta_arg_of_pericenter": 324.9753,
        "meta_mean_anomaly": 187.6358,
        "meta_ephemeris_type": 0,
        "meta_classification_type": "U",
        "meta_norad_cat_id": 34998,
        "meta_element_set_no": 999,
        "meta_rev_at_epoch": 87279,
        "meta_bstar": 0.00066768373,
        "meta_mean_motion_dot": 2.523e-05,
        "meta_mean_motion_ddot": 0,
        "tle_line1": "1 34998U 93036AFW 25337.01907939  .00002523  00000+0  66768-3 0  9999",
        "tle_line2": "2 34998  74.0093 178.2428 0020798 324.9753 187.6358 14.49214927872793"
      },
      "geometry": {
        "type": "Point",
        "coordinates": [
          -10.877497781898084,
          19.25080920673329
        ]
      }
    },
    {
      "type": "Feature",
      "properties": {
        "norad_id": 35000,
        "name": "COSMOS 2251 DEB",
        "group": "cosmos-2251-debris",
        "lat": -62.80541193103051,
        "lon": -177.80502388321037,
        "alt_km": 366.0030880827426,
        "timestamp": "2025-12-04T19:33:59.994910+00:00",
        "meta_object_name": "COSMOS 2251 DEB",
        "meta_object_id": "1993-036AFY",
        "meta_epoch": "2025-12-03T17:51:09.139392",
        "meta_mean_motion": 15.68798359,
        "meta_eccentricity": 0.00113057,
        "meta_inclination": 74.0037,
        "meta_ra_of_asc_node": 218.5611,
        "meta_arg_of_pericenter": 183.2738,
        "meta_mean_anomaly": 176.8412,
        "meta_ephemeris_type": 0,
        "meta_classification_type": "U",
        "meta_norad_cat_id": 35000,
        "meta_element_set_no": 999,
        "meta_rev_at_epoch": 88373,
        "meta_bstar": 0.0077546644,
        "meta_mean_motion_dot": 0.0098301,
        "meta_mean_motion_ddot": 0,
        "tle_line1": "1 35000U 93036AFY 25337.74385578  .00983010  00000+0  77547-2 0  9998",
        "tle_line2": "2 35000  74.0037 218.5611 0011305 183.2738 176.8412 15.68798359883736"
      },
      "geometry": {
        "type": "Point",
        "coordinates": [
          -177.80502388321037,
          -62.80541193103051
        ]
      }
    },
    {
      "type": "Feature",
      "properties": {
        "norad_id": 35012,
        "name": "COSMOS 2251 DEB",
        "group": "cosmos-2251-debris",
        "lat": -55.35527741522008,
        "lon": -28.969041355535357,
        "alt_km": 696.2371670663933,
        "timestamp": "2025-12-04T19:33:59.994919+00:00",
        "meta_object_name": "COSMOS 2251 DEB",
        "meta_object_id": "1993-036AFZ",
        "meta_epoch": "2025-11-29T10:33:51.837120",
        "meta_mean_motion": 14.45521065,
        "meta_eccentricity": 0.0081636,
        "meta_inclination": 74.0181,
        "meta_ra_of_asc_node": 136.5568,
        "meta_arg_of_pericenter": 279.5143,
        "meta_mean_anomaly": 79.6796,
        "meta_ephemeris_type": 0,
        "meta_classification_type": "U",
        "meta_norad_cat_id": 35012,
        "meta_element_set_no": 999,
        "meta_rev_at_epoch": 87369,
        "meta_bstar": 0.00015191388,
        "meta_mean_motion_dot": 5.29e-06,
        "meta_mean_motion_ddot": 0,
        "tle_line1": "1 35012U 93036AFZ 25333.44018330  .00000529  00000+0  15191-3 0  9996",
        "tle_line2": "2 35012  74.0181 136.5568 0081636 279.5143  79.6796 14.45521065873693"
      },
      "geometry": {
        "type": "Point",
        "coordinates": [
          -28.969041355535357,
          -55.35527741522008
        ]
      }
    },
    {
      "type": "Feature",
      "properties": {
        "norad_id": 35014,
        "name": "COSMOS 2251 DEB",
        "group": "cosmos-2251-debris",
        "lat": -42.084804128014014,
        "lon": -105.91477462439859,
        "alt_km": 646.1421750017862,
        "timestamp": "2025-12-04T19:33:59.994928+00:00",
        "meta_object_name": "COSMOS 2251 DEB",
        "meta_object_id": "1993-036AGB",
        "meta_epoch": "2025-11-29T00:10:14.201184",
        "meta_mean_motion": 14.74716562,
        "meta_eccentricity": 0.00081798,
        "meta_inclination": 73.9988,
        "meta_ra_of_asc_node": 70.4329,
        "meta_arg_of_pericenter": 241.0886,
        "meta_mean_anomaly": 118.9467,
        "meta_ephemeris_type": 0,
        "meta_classification_type": "U",
        "meta_norad_cat_id": 35014,
        "meta_element_set_no": 999,
        "meta_rev_at_epoch": 71134,
        "meta_bstar": 0.0017863262,
        "meta_mean_motion_dot": 0.00011934,
        "meta_mean_motion_ddot": 0,
        "tle_line1": "1 35014U 93036AGB 25333.00710881  .00011934  00000+0  17863-2 0  9999",
        "tle_line2": "2 35014  73.9988  70.4329 0008179 241.0886 118.9467 14.74716562711343"
      },
      "geometry": {
        "type": "Point",
        "coordinates": [
          -105.91477462439859,
          -42.084804128014014
        ]
      }
    },
    {
      "type": "Feature",
      "properties": {
        "norad_id": 35015,
        "name": "COSMOS 2251 DEB",
        "group": "cosmos-2251-debris",
        "lat": -21.861263397471834,
        "lon": -117.01967360659667,
        "alt_km": 783.3863571242819,
        "timestamp": "2025-12-04T19:33:59.994937+00:00",
        "meta_object_name": "COSMOS 2251 DEB",
        "meta_object_id": "1993-036AGC",
        "meta_epoch": "2025-12-01T12:49:23.800800",
        "meta_mean_motion": 14.46768601,
        "meta_eccentricity": 0.00742089,
        "meta_inclination": 73.9481,
        "meta_ra_of_asc_node": 255.7738,
        "meta_arg_of_pericenter": 127.6207,
        "meta_mean_anomaly": 48.46,
        "meta_ephemeris_type": 0,
        "meta_classification_type": "U",
        "meta_norad_cat_id": 35015,
        "meta_element_set_no": 999,
        "meta_rev_at_epoch": 65278,
        "meta_bstar": 0.00081419309,
        "meta_mean_motion_dot": 3.023e-05,
        "meta_mean_motion_ddot": 0,
        "tle_line1": "1 35015U 93036AGC 25335.53430325  .00003023  00000+0  81419-3 0  9991",
        "tle_line2": "2 35015  73.9481 255.7738 0074208 127.6207  48.4600 14.46768601652784"
      },
      "geometry": {
        "type": "Point",
        "coordinates": [
          -117.01967360659667,
          -21.861263397471834
        ]
      }
    },
    {
      "type": "Feature",
      "properties": {
        "norad_id": 35016,
        "name": "COSMOS 2251 DEB",
        "group": "cosmos-2251-debris",
        "lat": -21.974131200451897,
        "lon": -57.63170555190999,
        "alt_km": 806.6214809379908,
        "timestamp": "2025-12-04T19:33:59.994946+00:00",
        "meta_object_name": "COSMOS 2251 DEB",
        "meta_object_id": "1993-036AGD",
        "meta_epoch": "2025-12-03T09:15:41.281344",
        "meta_mean_motion": 14.3502721,
        "meta_eccentricity": 0.011501,
        "meta_inclination": 73.9297,
        "meta_ra_of_asc_node": 311.6842,
        "meta_arg_of_pericenter": 230.5843,
        "meta_mean_anomaly": 283.9594,
        "meta_ephemeris_type": 0,
        "meta_classification_type": "U",
        "meta_norad_cat_id": 35016,
        "meta_element_set_no": 999,
        "meta_rev_at_epoch": 86648,
        "meta_bstar": 0.00056136775,
        "meta_mean_motion_dot": 1.695e-05,
        "meta_mean_motion_ddot": 0,
        "tle_line1": "1 35016U 93036AGD 25337.38589446  .00001695  00000+0  56137-3 0  9998",
        "tle_line2": "2 35016  73.9297 311.6842 0115010 230.5843 283.9594 14.35027210866489"
      },
      "geometry": {
        "type": "Point",
        "coordinates": [
          -57.63170555190999,
          -21.974131200451897
        ]
      }
    },
    {
      "type": "Feature",
      "properties": {
        "norad_id": 35018,
        "name": "COSMOS 2251 DEB",
        "group": "cosmos-2251-debris",
        "lat": -31.1949963950818,
        "lon": -46.94687224108246,
        "alt_km": 1273.013041015145,
        "timestamp": "2025-12-04T19:33:59.994955+00:00",
        "meta_object_name": "COSMOS 2251 DEB",
        "meta_object_id": "1993-036AGF",
        "meta_epoch": "2025-12-03T16:11:56.443776",
        "meta_mean_motion": 13.67089178,
        "meta_eccentricity": 0.03484341,
        "meta_inclination": 73.9753,
        "meta_ra_of_asc_node": 124.9092,
        "meta_arg_of_pericenter": 36.0656,
        "meta_mean_anomaly": 326.3427,
        "meta_ephemeris_type": 0,
        "meta_classification_type": "U",
        "meta_norad_cat_id": 35018,
        "meta_element_set_no": 999,
        "meta_rev_at_epoch": 83062,
        "meta_bstar": 0.0010763143,
        "meta_mean_motion_dot": 1.35e-05,
        "meta_mean_motion_ddot": 0,
        "tle_line1": "1 35018U 93036AGF 25337.67495884  .00001350  00000+0  10763-2 0  9996",
        "tle_line2": "2 35018  73.9753 124.9092 0348434  36.0656 326.3427 13.67089178830628"
      },
      "geometry": {
        "type": "Point",
        "coordinates": [
          -46.94687224108246,
          -31.1949963950818
        ]
      }
    }
  ]
}